STARLINK-4621           
1 53676U 22105AE  26068.66720969 -.00001041  00000+0 -76561-4 0  9990
2 53676  97.6010 310.1897 0003311  33.3535 326.7897 15.01252403193234
PICO-02A021             
1 60538U 24149BY  26068.15390193  .00008488  00000+0  64833-3 0  9999
2 60538  97.6823 147.9080 0004195   9.5557 350.5747 15.02201963 84718
